satNo,name,line1,line2,inclination,apogee,raan,argument_of_perigee,eccentricity,mean_motion,hdbscan_labels
53664,STARLINK-4471,1 53664U 22105S   26027.12190580 -.00000733  00000-0 -46582-4 0  9991,2 53664  97.6013 270.2070 0003242  84.8381 275.3215 15.05659338187043,97.6013,558.8654450433291,270.207,84.8381,0.0003242,15.05659338,229
53665,STARLINK-4334,1 53665U 22105T   26027.22161557 -.00002446  00000-0 -16547-3 0  9995,2 53665  97.6046 270.3906 0002409  73.9371 286.2121 15.05622008187064,97.6046,558.4029091791632,270.3906,73.9371,0.0002409,15.05622008,254
53667,STARLINK-4406,1 53667U 22105V   26027.13852926  .00004565  00000-0  32052-3 0  9995,2 53667  97.6008 270.3453 0002726  90.3777 269.7762 15.05633034187053,97.6008,558.5886871242029,270.3453,90.3777,0.0002726,15.05633034,267
53668,STARLINK-4458,1 53668U 22105W   26027.24376887 -.00008017  00000-0 -55221-3 0  9996,2 53668  97.6037 270.3187 0001356  96.1626 263.9755 15.05638941187066,97.6037,557.6214703224283,270.3187,96.1626,0.0001356,15.05638941,266
53669,STARLINK-4464,1 53669U 22105X   26027.22793220  .00001346  00000-0  10929-3 0  9991,2 53669  97.6013 269.6074 0000929  56.4139 303.7174 15.01265752187015,97.6013,570.7739485901399,269.6074,56.4139,9.29e-05,15.01265752,260
53670,STARLINK-4459,1 53670U 22105Y   26027.14683544  .00000991  00000-0  72910-4 0  9995,2 53670  97.6036 270.3097 0002666 110.8867 249.2646 15.05645699187057,97.6036,558.5082614767076,270.3097,110.8867,0.0002666,15.05645699,266
53671,STARLINK-4440,1 53671U 22105Z   26027.21892020  .00000046  00000-0  80943-5 0  9992,2 53671  97.6051 269.6175 0002334  80.4911 279.6577 15.01270768187010,97.6051,571.7337126216777,269.6175,80.4911,0.0002334,15.01270768,260
53672,STARLINK-4428,1 53672U 22105AA  26027.13905755  .00001569  00000-0  12661-3 0  9995,2 53672  97.6018 269.5625 0003117  32.7233 327.4184 15.01279095187007,97.6018,572.2515273931474,269.5625,32.7233,0.0003117,15.01279095,259
53673,STARLINK-4456,1 53673U 22105AB  26027.24929549 -.00000116  00000-0 -38094-5 0  9994,2 53673  97.6030 270.3825 0002778  72.4457 287.7073 15.05643977187064,97.603,558.59113484562,270.3825,72.4457,0.0002778,15.05643977,254
53674,STARLINK-4620,1 53674U 22105AC  26027.14647206  .00000322  00000-0  29644-4 0  9998,2 53674  97.6024 269.5475 0003005  82.0526 278.1039 15.01260394187001,97.6024,572.2314472129615,269.5475,82.0526,0.0003005,15.01260394,259
53675,STARLINK-4617,1 53675U 22105AD  26027.26037279  .00000408  00000-0  32508-4 0  9993,2 53675  97.6024 270.4501 0002327  86.5647 273.5846 15.05647013187075,97.6024,558.2693822381422,270.4501,86.5647,0.0002327,15.05647013,240
53676,STARLINK-4621,1 53676U 22105AE  26027.14276636  .00001096  00000-0  89833-4 0  9990,2 53676  97.6024 269.5444 0003675  58.8608 301.2977 15.01264253187001,97.6024,572.6846047832965,269.5444,58.8608,0.0003675,15.01264253,259
53677,STARLINK-4579,1 53677U 22105AF  26027.21883609  .00001439  00000-0  10391-3 0  9996,2 53677  97.6066 270.3571 0002926  79.4956 280.6600 15.05641679187066,97.6066,558.7007153173844,270.3571,79.4956,0.0002926,15.05641679,-1
53679,STARLINK-4632,1 53679U 22105AH  26027.25207052 -.00000300  00000-0 -16605-4 0  9997,2 53679  97.6012 270.4585 0003125  78.2836 281.8742 15.05645204187070,97.6012,558.8277599780923,270.4585,78.2836,0.0003125,15.05645204,240
53680,STARLINK-4630,1 53680U 22105AJ  26027.21605997  .00001303  00000-0  94513-4 0  9991,2 53680  97.6037 270.3370 0002503  91.3077 268.8436 15.05648735187068,97.6037,558.3860256080972,270.337,91.3077,0.0002503,15.05648735,267
53681,STARLINK-4424,1 53681U 22105AK  26027.13535746  .00000695  00000-0  58662-4 0  9995,2 53681  97.6011 269.5494 0004102  34.4033 325.7456 15.01262779187000,97.6011,572.9855364458393,269.5494,34.4033,0.0004102,15.01262779,259
53682,STARLINK-4438,1 53682U 22105AL  26027.23544515 -.00000471  00000-0 -28457-4 0  9994,2 53682  97.6031 270.3063 0002431  90.7308 269.4197 15.05645948187067,97.6031,558.3446974630318,270.3063,90.7308,0.0002431,15.05645948,266
53683,STARLINK-4625,1 53683U 22105AM  26027.14115555  .00001058  00000-0  86902-4 0  9992,2 53683  97.6019 269.5379 0002462  69.7883 290.3606 15.01253061187001,97.6019,571.8771516343951,269.5379,69.7883,0.0002462,15.01253061,259
53684,STARLINK-4624,1 53684U 22105AN  26027.22422425  .00002025  00000-0  16218-3 0  9996,2 53684  97.6068 269.6796 0001340  75.2305 284.9068 15.01260503186992,97.6068,571.0754104424399,269.6796,75.2305,0.000134,15.01260503,-1
53685,STARLINK-4626,1 53685U 22105AP  26027.13375324  .00000833  00000-0  69385-4 0  9991,2 53685  97.6005 269.5370 0003143  53.1349 307.0163 15.01258394187008,97.6005,572.3334016943555,269.537,53.1349,0.0003143,15.01258394,259
53686,STARLINK-4467,1 53686U 22105AQ  26027.17238038  .00009228  00000-0  72186-3 0  9995,2 53686  97.6013 269.6179 0000358  68.1637 291.9626 15.01269989187015,97.6013,570.3645497837188,269.6179,68.1637,3.58e-05,15.01269989,260
53687,STARLINK-4569,1 53687U 22105AR  26027.23267592 -.00000321  00000-0 -17988-4 0  9997,2 53687  97.6053 270.3056 0003078  54.3442 305.8071 15.05650863187069,97.6053,558.7778361604484,270.3056,54.3442,0.0003078,15.05650863,266
53688,STARLINK-4571,1 53688U 22105AS  26027.12795131  .00000348  00000-0  31649-4 0  9998,2 53688  97.6002 269.5225 0003514  26.8092 333.3313 15.01263420187006,97.6002,572.5754210314481,269.5225,26.8092,0.0003514,15.0126342,259
53690,STARLINK-4570,1 53690U 22105AU  26027.21683089  .00000883  00000-0  73264-4 0  9992,2 53690  97.6025 269.5608 0003317  76.1239 284.0355 15.01263466187010,97.6025,572.4385388109488,269.5608,76.1239,0.0003317,15.01263466,259
53691,STARLINK-4560,1 53691U 22105AV  26027.14130047 -.00000312  00000-0 -17401-4 0  9996,2 53691  97.6013 270.2584 0002921  90.1431 270.0130 15.05643783187058,97.6013,558.6907957320353,270.2584,90.1431,0.0002921,15.05643783,229
53692,STARLINK-4572,1 53692U 22105AW  26027.25790172  .00055915  00000-0  26852-2 0  9995,2 53692  97.6247 273.8147 0004103  54.0133 306.1480 15.18630053187266,97.6247,519.943182369899,273.8147,54.0133,0.0004103,15.18630053,-1
53693,STARLINK-4566,1 53693U 22105AX  26027.22991754  .00000320  00000-0  26400-4 0  9993,2 53693  97.6004 270.4439 0003322  65.0466 295.1105 15.05651043187076,97.6004,558.9463183958251,270.4439,65.0466,0.0003322,15.05651043,240
53700,STARLINK-4725,1 53700U 22107A   26027.31965630 -.00000304  00000-0 -10125-5 0  9990,2 53700  53.2182  69.4620 0001430 106.7516 253.3634 15.08839220188617,53.2182,547.8720303496392,69.462,106.7516,0.000143,15.0883922,719
53701,STARLINK-4711,1 53701U 22107B   26027.31597187  .00000282  00000-0  35799-4 0  9995,2 53701  53.2177  69.4426 0001425  86.7714 273.3441 15.08840597188614,53.2177,547.8643618699302,69.4426,86.7714,0.0001425,15.08840597,719
53702,STARLINK-4724,1 53702U 22107C   26027.34130699  .00001796  00000-0  13089-3 0  9998,2 53702  53.2182  54.6389 0001555  93.2923 266.8247 15.08843846188851,53.2182,547.944361878166,54.6389,93.2923,0.0001555,15.08843846,-1
53703,STARLINK-4731,1 53703U 22107D   26026.40334991  .00000380  00000-0  41978-4 0  9993,2 53703  53.2179  73.6970 0001495  93.9257 266.1906 15.08839596188475,53.2179,547.9158471335172,73.697,93.9257,0.0001495,15.08839596,-1
53704,STARLINK-4714,1 53704U 22107E   26027.31237415  .00001109  00000-0  87757-4 0  9993,2 53704  53.2186  70.1273 0001530  79.3713 280.7451 15.08837592188445,53.2186,547.9461860921932,70.1273,79.3713,0.000153,15.08837592,940
53705,STARLINK-4717,1 53705U 22107F   26027.30870703  .00001110  00000-0  87774-4 0  9997,2 53705  53.2179  70.1047 0001157  84.4005 275.7119 15.08844015188604,53.2179,547.6685140836462,70.1047,84.4005,0.0001157,15.08844015,941
53706,STARLINK-4716,1 53706U 22107G   26027.29395189 -.00000034  00000-0  15933-4 0  9999,2 53706  53.2189  70.0149 0001621 113.3840 246.7323 15.08837150188600,53.2189,548.0104901108108,70.0149,113.384,0.0001621,15.0883715,836
53707,STARLINK-4667,1 53707U 22107H   26027.28612532  .00000268  00000-0  34913-4 0  9990,2 53707  53.2185  55.0031 0001397  85.1004 275.0148 15.08838507188818,53.2185,547.8513809994404,55.0031,85.1004,0.0001397,15.08838507,1231
53708,STARLINK-4694,1 53708U 22107J   26027.27138601 -.00000305  00000-0 -10465-5 0  9991,2 53708  53.2189  54.9192 0001389  87.0883 273.0268 15.08842675188818,53.2189,547.8331050216574,54.9192,87.0883,0.0001389,15.08842675,1232
53709,STARLINK-4685,1 53709U 22107K   26027.32473022  .00000670  00000-0  60206-4 0  9997,2 53709  53.2182  74.5107 0001613  84.7628 275.3548 15.08845611188232,53.2182,547.9790897753248,74.5107,84.7628,0.0001613,15.08845611,-1
53711,STARLINK-4627,1 53711U 22107M   26027.26953747  .00000791  00000-0  67788-4 0  9996,2 53711  53.2178  74.8649 0001409  91.3688 268.7465 15.08839806188229,53.2178,547.8557113749106,74.8649,91.3688,0.0001409,15.08839806,-1
53712,STARLINK-4683,1 53712U 22107N   26027.30999558  .00001889  00000-0  13675-3 0  9996,2 53712  53.2188  74.4277 0001640  90.4385 269.6795 15.08836346188250,53.2188,548.0260920183156,74.4277,90.4385,0.000164,15.08836346,-1
53715,STARLINK-4686,1 53715U 22107R   26026.46866750  .00007074  00000-0  46177-3 0  9997,2 53715  53.2160  83.3719 0001500  78.2522 281.8639 15.08865591188049,53.216,547.8398389457911,83.3719,78.2522,0.00015,15.08865591,606
53716,STARLINK-4699,1 53716U 22107S   26027.32607672  .00000711  00000-0  62677-4 0  9995,2 53716  53.2164  79.4885 0001438  41.5335 318.5766 15.08878701188168,53.2164,547.756872207785,79.4885,41.5335,0.0001438,15.08878701,807
53718,STARLINK-4695,1 53718U 22107U   26027.31609728  .00000190  00000-0  30007-4 0  9993,2 53718  53.2179  80.1203 0001414  96.6903 263.4250 15.08836462188158,53.2179,547.8693930519707,80.1203,96.6903,0.0001414,15.08836462,808
53719,STARLINK-4644,1 53719U 22107V   26027.31781804  .00009363  00000-0  60562-3 0  9999,2 53719  53.2171  49.4688 0001481  88.6572 271.4590 15.08836120188598,53.2171,547.9167884393157,49.4688,88.6572,0.0001481,15.0883612,845
